NORAD_CAT_ID,OBJECT_NAME,OBJECT_TYPE,EPOCH,MEAN_MOTION,ECCENTRICITY,INCLINATION,RA_OF_ASC_NODE,ARG_OF_PERICENTER,MEAN_ANOMALY,BSTAR,MEAN_MOTION_DOT,MEAN_MOTION_DDOT,TLE_LINE0,TLE_LINE1,TLE_LINE2,SEMIMAJOR_AXIS,PERIOD,APOGEE,PERIGEE,DECAYED
49771.0,STARLINK-3201,PAYLOAD,2022-12-04 00:14:05,15.08840779,0.0001785,53.2177,88.7764,49.648,310.4668,-0.00013734,-2.473e-05,0.0,0 STARLINK-3201,1 49771U 21115AZ  22338.00978359 -.00002473  00000-0 -13734-3 0  9996,2 49771  53.2177  88.7764 0001785  49.6480 310.4668 15.08840779 56881,6917.878000000002,95.438,540.9780000000002,538.508,0.0
49771.0,STARLINK-3201,PAYLOAD,2022-12-04 14:32:33,15.08839106,0.0002041,53.2177,86.0998,42.6643,317.4507,1.6505e-05,-2.6e-07,0.0,0 STARLINK-3201,1 49771U 21115AZ  22338.60594314 -.00000026  00000-0  16505-4 0  9998,2 49771  53.2177  86.0998 0002041  42.6643 317.4507 15.08839106 55869,6917.8830000000025,95.438,541.16,538.336,0.0
49771.0,STARLINK-3201,PAYLOAD,2022-12-04 17:43:19,15.08837045,0.000216,53.2177,85.5057,49.3551,310.7629,-2.2615e-06,-3.24e-06,0.0,0 STARLINK-3201,1 49771U 21115AZ  22338.73842569 -.00000324  00000-0 -22615-5 0  9992,2 49771  53.2177  85.5057 0002160  49.3551 310.7629 15.08837045 55886,6917.889,95.438,541.249,538.26,0.0
49771.0,STARLINK-3201,PAYLOAD,2022-12-05 08:01:48,15.08834646,0.0002101,53.2176,82.8292,42.8282,317.2873,0.00012242,1.66e-05,0.0,0 STARLINK-3201,1 49771U 21115AZ  22339.33458542  .00001660  00000-0  12242-3 0  9998,2 49771  53.2176  82.8292 0002101  42.8282 317.2873 15.08834646 57081,6917.897,95.438,541.215,538.308,0.0
49771.0,STARLINK-3201,PAYLOAD,2022-12-05 17:34:06,15.08840856,0.0002105,53.2179,81.0452,43.7977,316.3181,0.00016293,2.306e-05,0.0,0 STARLINK-3201,1 49771U 21115AZ  22339.73202164  .00002306  00000-0  16293-3 0  9997,2 49771  53.2179  81.0452 0002105  43.7977 316.3181 15.08840856 56034,6917.878000000002,95.438,541.1990000000002,538.2869999999998,0.0
49771.0,STARLINK-3201,PAYLOAD,2022-12-06 06:17:11,15.0884698,0.0002004,53.2183,78.6662,36.8633,323.2496,0.00013508,1.863e-05,0.0,0 STARLINK-3201,1 49771U 21115AZ  22340.26193749  .00001863  00000-0  13508-3 0  9998,2 49771  53.2183  78.6662 0002004  36.8633 323.2496 15.08846980 57226,6917.859,95.437,541.11,538.3380000000002,0.0
49771.0,STARLINK-3201,PAYLOAD,2022-12-06 07:52:34,15.08847983,0.0002006,53.2188,78.369,41.6319,318.4826,9.4522e-05,1.217e-05,0.0,0 STARLINK-3201,1 49771U 21115AZ  22340.32817801  .00001217  00000-0  94522-4 0  9996,2 49771  53.2188  78.3690 0002006  41.6319 318.4826 15.08847983 56121,6917.856,95.437,541.109,538.3330000000002,0.0
49771.0,STARLINK-3201,PAYLOAD,2022-12-06 14:14:07,15.08837213,0.0001862,53.2182,77.18,42.7248,317.3888,-3.4455e-05,-8.36e-06,0.0,0 STARLINK-3201,1 49771U 21115AZ  22340.59314710 -.00000836  00000-0 -34455-4 0  9993,2 49771  53.2182  77.1800 0001862  42.7248 317.3888 15.08837213 56162,6917.889,95.438,541.0419999999998,538.466,0.0
49771.0,STARLINK-3201,PAYLOAD,2022-12-07 18:51:04,15.08842778,0.0002125,53.2177,71.8263,35.3334,324.7798,-3.3421e-05,-8.2e-06,0.0,0 STARLINK-3201,1 49771U 21115AZ  22341.78546825 -.00000820  00000-0 -33421-4 0  9994,2 49771  53.2177  71.8263 0002125  35.3334 324.7798 15.08842778 57454,6917.871999999999,95.437,541.207,538.2669999999998,0.0
49771.0,STARLINK-3201,PAYLOAD,2022-12-07 23:37:12,15.08851572,0.0001721999999999,53.2188,70.936,18.3459,341.7595,8.371e-05,1.045e-05,0.0,0 STARLINK-3201,1 49771U 21115AZ  22341.98417602  .00001045  00000-0  83710-4 0  9990,2 49771  53.2188  70.9360 0001722  18.3459 341.7595 15.08851572 57484,6917.845,95.437,540.901,538.519,0.0
49771.0,STARLINK-3201,PAYLOAD,2022-12-08 12:20:13,15.08909363,0.0002782,53.2183,68.5599,316.6458,43.4315,0.0004892,7.521e-05,0.0,0 STARLINK-3201,1 49771U 21115AZ  22342.51404706  .00007521  00000-0  48920-3 0  9999,2 49771  53.2183  68.5599 0002782 316.6458  43.4315 15.08909363 56450,6917.668000000002,95.433,541.4580000000002,537.609,0.0
49771.0,STARLINK-3201,PAYLOAD,2022-12-08 13:55:37,15.08912956,0.0002229,53.218,68.2643,18.7971,341.3103,-4.3292e-05,-9.79e-06,0.0,0 STARLINK-3201,1 49771U 21115AZ  22342.58029961 -.00000979  00000-0 -43292-4 0  9992,2 49771  53.2180  68.2643 0002229  18.7971 341.3103 15.08912956 57571,6917.656999999997,95.433,541.064,537.98,0.0
49771.0,STARLINK-3201,PAYLOAD,2022-12-08 23:28:00,15.08826902,0.0002364,53.2177,66.4802,329.8736,30.212,3.7232e-05,3.04e-06,0.0,0 STARLINK-3201,1 49771U 21115AZ  22342.97778355  .00000304  00000-0  37232-4 0  9990,2 49771  53.2177  66.4802 0002364 329.8736  30.2120 15.08826902 57634,6917.92,95.438,541.4209999999998,538.15,0.0
49771.0,STARLINK-3201,PAYLOAD,2022-12-09 16:57:13,15.08869567,0.0001646,53.2165,63.2086,345.3878,14.7066,-6.9249e-05,-1.391e-05,0.0,0 STARLINK-3201,1 49771U 21115AZ  22343.70640778 -.00001391  00000-0 -69249-4 0  9991,2 49771  53.2165  63.2086 0001646 345.3878  14.7066 15.08869567 57744,6917.79,95.436,540.794,538.516,0.0
49771.0,STARLINK-3201,PAYLOAD,2022-12-10 05:40:15,15.08938831,0.0001992,53.2161,60.8281,317.8856,42.1983,-0.000331,-5.567e-05,0.0,0 STARLINK-3201,1 49771U 21115AZ  22344.23628523 -.00005567  00000-0 -33100-3 0  9999,2 49771  53.2161  60.8281 0001992 317.8856  42.1983 15.08938831 57827,6917.578,95.431,540.821,538.065,0.0
49771.0,STARLINK-3201,PAYLOAD,2022-12-10 12:01:55,15.08837723,0.0002419,53.2197,59.6405,25.2358,334.8752,-0.00067584,-0.00011028,0.0,0 STARLINK-3201,1 49771U 21115AZ  22344.50133381 -.00011028  00000-0 -67584-3 0  9994,2 49771  53.2197  59.6405 0002419  25.2358 334.8752 15.08837723 57869,6917.887,95.438,541.4259999999998,538.0790000000002,0.0
49771.0,STARLINK-3201,PAYLOAD,2022-12-11 05:31:08,15.08740753,0.0002954,53.2209,56.3674,296.1911,63.8777,0.0014140999999999,0.00022229,0.0,0 STARLINK-3201,1 49771U 21115AZ  22345.22996462  .00022229  00000-0  14141-2 0  9994,2 49771  53.2209  56.3674 0002954 296.1911  63.8777 15.08740753 57977,6918.184,95.444,542.092,538.005,0.0
49771.0,STARLINK-3201,PAYLOAD,2022-12-11 11:52:44,15.08778787,0.0001061,53.2194,55.1759,80.6109,279.5003,-0.000262,-4.448e-05,0.0,0 STARLINK-3201,1 49771U 21115AZ  22345.49495579 -.00004448  00000-0 -26200-3 0  9991,2 49771  53.2194  55.1759 0001061  80.6109 279.5003 15.08778787 56902,6918.066999999999,95.441,540.6669999999998,539.198,0.0
49771.0,STARLINK-3201,PAYLOAD,2022-12-11 15:03:28,15.08805358,0.0001732,53.2193,54.5807,36.4275,323.6835,-5.020600000000002e-05,-1.086e-05,0.0,0 STARLINK-3201,1 49771U 21115AZ  22345.62741647 -.00001086  00000-0 -50206-4 0  9995,2 49771  53.2193  54.5807 0001732  36.4275 323.6835 15.08805358 58031,6917.986,95.44,541.049,538.653,0.0
49771.0,STARLINK-3201,PAYLOAD,2022-12-12 05:21:55,15.08837345,0.000229,53.2194,51.9051,36.6868,323.428,0.00012147,1.645e-05,0.0,0 STARLINK-3201,1 49771U 21115AZ  22346.22355655  .00001645  00000-0  12147-3 0  9992,2 49771  53.2194  51.9051 0002290  36.6868 323.4280 15.08837345 58127,6917.889,95.438,541.3380000000002,538.169,0.0
49771.0,STARLINK-3201,PAYLOAD,2022-12-12 11:43:27,15.08847012,0.0002183,53.2186,50.7144,40.0676,320.0476,9.2231e-05,1.18e-05,0.0,0 STARLINK-3201,1 49771U 21115AZ  22346.48851089  .00001180  00000-0  92231-4 0  9999,2 49771  53.2186  50.7144 0002183  40.0676 320.0476 15.08847012 58161,6917.859,95.437,541.234,538.214,0.0
49771.0,STARLINK-3201,PAYLOAD,2022-12-13 03:37:19,15.08847331,0.0002217,53.2183,47.7415,47.8647,312.2533,-6.1498e-05,-1.267e-05,0.0,0 STARLINK-3201,1 49771U 21115AZ  22347.15091581 -.00001267  00000-0 -61498-4 0  9996,2 49771  53.2183  47.7415 0002217  47.8647 312.2533 15.08847331 58268,6917.858,95.437,541.257,538.189,0.0
49771.0,STARLINK-3201,PAYLOAD,2022-12-13 09:58:51,15.08834422,0.0002308,53.2181,46.5515,38.8253,321.2905,6.480800000000001e-05,7.43e-06,0.0,0 STARLINK-3201,1 49771U 21115AZ  22347.41587936  .00000743  00000-0  64808-4 0  9993,2 49771  53.2181  46.5515 0002308  38.8253 321.2905 15.08834422 57199,6917.897,95.438,541.359,538.1659999999998,0.0
49771.0,STARLINK-3201,PAYLOAD,2022-12-14 11:25:01,15.08845535,0.000237,53.2163,41.7935,31.5966,328.5168,7.2932e-05,8.73e-06,0.0,0 STARLINK-3201,1 49771U 21115AZ  22348.47571217  .00000873  00000-0  72932-4 0  9996,2 49771  53.2163  41.7935 0002370  31.5966 328.5168 15.08845535 58461,6917.863,95.437,541.368,538.089,0.0
49771.0,STARLINK-3201,PAYLOAD,2022-12-14 20:57:20,15.08847871,0.0002358,53.2165,40.011,32.5956,327.5182,-2.8426e-07,-2.93e-06,0.0,0 STARLINK-3201,1 49771U 21115AZ  22348.87315153 -.00000293  00000-0 -28426-6 0  9994,2 49771  53.2165  40.0110 0002358  32.5956 327.5182 15.08847871 57410,6917.856,95.437,541.3530000000002,538.09,0.0
49771.0,STARLINK-3201,PAYLOAD,2022-12-15 06:29:39,15.0882728,0.0002198,53.2167,38.2262,31.9831,328.1294,0.00023489,3.451e-05,0.0,0 STARLINK-3201,1 49771U 21115AZ  22349.27059940  .00003451  00000-0  23489-3 0  9996,2 49771  53.2167  38.2262 0002198  31.9831 328.1294 15.08827280 58588,6917.919,95.438,541.305,538.264,0.0
49771.0,STARLINK-3201,PAYLOAD,2022-12-15 09:40:25,15.08841284,0.0002333,53.2165,37.6301,35.4964,324.6183,8.815e-05,1.115e-05,0.0,0 STARLINK-3201,1 49771U 21115AZ  22349.40307423  .00001115  00000-0  88150-4 0  9995,2 49771  53.2165  37.6301 0002333  35.4964 324.6183 15.08841284 58601,6917.876,95.437,541.355,538.128,0.0
49771.0,STARLINK-3201,PAYLOAD,2022-12-16 12:41:58,15.08847306,0.0002582,53.2167,32.5766,22.0494,338.0608,4.4224e-05,4.16e-06,0.0,0 STARLINK-3201,1 49771U 21115AZ  22350.52914873  .00000416  00000-0  44224-4 0  9990,2 49771  53.2167  32.5766 0002582  22.0494 338.0608 15.08847306 58778,6917.858,95.437,541.509,537.937,0.0
49771.0,STARLINK-3201,PAYLOAD,2022-12-16 14:17:21,15.08844898,0.0002547,53.2166,32.2789,23.642,336.4689,2.0438e-05,3.7e-07,0.0,0 STARLINK-3201,1 49771U 21115AZ  22350.59539054  .00000037  00000-0  20438-4 0  9991,2 49771  53.2166  32.2789 0002547  23.6420 336.4689 15.08844898 57678,6917.865,95.437,541.492,537.9680000000002,0.0
